[{"OBJECT_NAME":"STARLINK-6190","OBJECT_ID":"2023-078H","EPOCH":"2025-11-25T01:41:39.378624","MEAN_MOTION":14.98343267,"ECCENTRICITY":0.0002711,"INCLINATION":69.9995,"RA_OF_ASC_NODE":268.3328,"ARG_OF_PERICENTER":282.2586,"MEAN_ANOMALY":77.8269,"EPHEMERIS_TYPE":0,"CLASSIFICATION_TYPE":"U","NORAD_CAT_ID":56774,"ELEMENT_SET_NO":999,"REV_AT_EPOCH":13651,"BSTAR":0.00022913,"MEAN_MOTION_DOT":2.643e-5,"MEAN_MOTION_DDOT":0},{"OBJECT_NAME":"STARLINK-6292","OBJECT_ID":"2023-078J","EPOCH":"2025-11-25T01:58:42.204288","MEAN_MOTION":14.98334678,"ECCENTRICITY":0.0002761,"INCLINATION":69.9984,"RA_OF_ASC_NODE":208.3502,"ARG_OF_PERICENTER":268.5811,"MEAN_ANOMALY":91.5032,"EPHEMERIS_TYPE":0,"CLASSIFICATION_TYPE":"U","NORAD_CAT_ID":56775,"ELEMENT_SET_NO":999,"REV_AT_EPOCH":13799,"BSTAR":0.00013343,"MEAN_MOTION_DOT":1.5e-5,"MEAN_MOTION_DDOT":0},{"OBJECT_NAME":"STARLINK-6274","OBJECT_ID":"2023-078K","EPOCH":"2025-11-25T02:35:06.288288","MEAN_MOTION":14.98316449,"ECCENTRICITY":0.0002367,"INCLINATION":70,"RA_OF_ASC_NODE":228.3264,"ARG_OF_PERICENTER":265.3502,"MEAN_ANOMALY":94.7387,"EPHEMERIS_TYPE":0,"CLASSIFICATION_TYPE":"U","NORAD_CAT_ID":56776,"ELEMENT_SET_NO":999,"REV_AT_EPOCH":13750,"BSTAR":-0.00013673,"MEAN_MOTION_DOT":-1.723e-5,"MEAN_MOTION_DDOT":0},{"OBJECT_NAME":"STARLINK-5582","OBJECT_ID":"2023-078L","EPOCH":"2025-11-25T01:35:19.959936","MEAN_MOTION":14.98342905,"ECCENTRICITY":0.0003251,"INCLINATION":69.9989,"RA_OF_ASC_NODE":248.4478,"ARG_OF_PERICENTER":274.0944,"MEAN_ANOMALY":85.9843,"EPHEMERIS_TYPE":0,"CLASSIFICATION_TYPE":"U","NORAD_CAT_ID":56777,"ELEMENT_SET_NO":999,"REV_AT_EPOCH":13700,"BSTAR":-0.00020329,"MEAN_MOTION_DOT":-2.519e-5,"MEAN_MOTION_DDOT":0},{"OBJECT_NAME":"STARLINK-6304","OBJECT_ID":"2023-078M","EPOCH":"2025-11-25T02:29:05.011008","MEAN_MOTION":14.98331977,"ECCENTRICITY":0.0002619,"INCLINATION":69.9993,"RA_OF_ASC_NODE":228.3085,"ARG_OF_PERICENTER":269.5034,"MEAN_ANOMALY":90.5825,"EPHEMERIS_TYPE":0,"CLASSIFICATION_TYPE":"U","NORAD_CAT_ID":56778,"ELEMENT_SET_NO":999,"REV_AT_EPOCH":13750,"BSTAR":0.00012115,"MEAN_MOTION_DOT":1.353e-5,"MEAN_MOTION_DDOT":0},{"OBJECT_NAME":"STARLINK-6231","OBJECT_ID":"2023-078N","EPOCH":"2025-11-25T01:53:01.187808","MEAN_MOTION":14.98345961,"ECCENTRICITY":0.0002422,"INCLINATION":69.9988,"RA_OF_ASC_NODE":228.2188,"ARG_OF_PERICENTER":268.2771,"MEAN_ANOMALY":91.8111,"EPHEMERIS_TYPE":0,"CLASSIFICATION_TYPE":"U","NORAD_CAT_ID":56779,"ELEMENT_SET_NO":999,"REV_AT_EPOCH":13749,"BSTAR":0.00041434,"MEAN_MOTION_DOT":4.856e-5,"MEAN_MOTION_DDOT":0},{"OBJECT_NAME":"STARLINK-5963","OBJECT_ID":"2023-078P","EPOCH":"2025-11-25T01:29:31.996032","MEAN_MOTION":14.98335118,"ECCENTRICITY":0.0002723,"INCLINATION":69.9996,"RA_OF_ASC_NODE":248.0522,"ARG_OF_PERICENTER":265.875,"MEAN_ANOMALY":94.2098,"EPHEMERIS_TYPE":0,"CLASSIFICATION_TYPE":"U","NORAD_CAT_ID":56780,"ELEMENT_SET_NO":999,"REV_AT_EPOCH":13701,"BSTAR":6.8366e-5,"MEAN_MOTION_DOT":7.23e-6,"MEAN_MOTION_DDOT":0},{"OBJECT_NAME":"STARLINK-5989","OBJECT_ID":"2023-078Q","EPOCH":"2025-11-25T02:41:26.278944","MEAN_MOTION":14.98318217,"ECCENTRICITY":0.0001558,"INCLINATION":70.0018,"RA_OF_ASC_NODE":248.2043,"ARG_OF_PERICENTER":251.2727,"MEAN_ANOMALY":108.8263,"EPHEMERIS_TYPE":0,"CLASSIFICATION_TYPE":"U","NORAD_CAT_ID":56781,"ELEMENT_SET_NO":999,"REV_AT_EPOCH":13701,"BSTAR":0.00010439,"MEAN_MOTION_DOT":1.153e-5,"MEAN_MOTION_DDOT":0},{"OBJECT_NAME":"STARLINK-6352","OBJECT_ID":"2023-078R","EPOCH":"2025-11-25T02:23:03.725088","MEAN_MOTION":14.98337749,"ECCENTRICITY":0.0002731,"INCLINATION":69.9988,"RA_OF_ASC_NODE":228.2932,"ARG_OF_PERICENTER":272.5526,"MEAN_ANOMALY":87.5321,"EPHEMERIS_TYPE":0,"CLASSIFICATION_TYPE":"U","NORAD_CAT_ID":56782,"ELEMENT_SET_NO":999,"REV_AT_EPOCH":13750,"BSTAR":-8.5209e-5,"MEAN_MOTION_DOT":-1.11e-5,"MEAN_MOTION_DDOT":0},{"OBJECT_NAME":"STARLINK-6357","OBJECT_ID":"2023-078S","EPOCH":"2025-11-25T02:11:02.931360","MEAN_MOTION":14.98332779,"ECCENTRICITY":0.0002755,"INCLINATION":69.9991,"RA_OF_ASC_NODE":228.2641,"ARG_OF_PERICENTER":268.1475,"MEAN_ANOMALY":91.9369,"EPHEMERIS_TYPE":0,"CLASSIFICATION_TYPE":"U","NORAD_CAT_ID":56783,"ELEMENT_SET_NO":999,"REV_AT_EPOCH":13750,"BSTAR":0.00015705,"MEAN_MOTION_DOT":1.781e-5,"MEAN_MOTION_DDOT":0},{"OBJECT_NAME":"STARLINK-6354","OBJECT_ID":"2023-078T","EPOCH":"2025-11-25T02:17:03.912288","MEAN_MOTION":14.98365306,"ECCENTRICITY":0.0002826,"INCLINATION":70.0003,"RA_OF_ASC_NODE":228.2803,"ARG_OF_PERICENTER":267.7144,"MEAN_ANOMALY":92.3692,"EPHEMERIS_TYPE":0,"CLASSIFICATION_TYPE":"U","NORAD_CAT_ID":56784,"ELEMENT_SET_NO":999,"REV_AT_EPOCH":13750,"BSTAR":0.0008081,"MEAN_MOTION_DOT":9.571e-5,"MEAN_MOTION_DDOT":0},{"OBJECT_NAME":"STARLINK-5931","OBJECT_ID":"2023-078U","EPOCH":"2025-11-25T02:53:27.273120","MEAN_MOTION":14.98324972,"ECCENTRICITY":0.0002774,"INCLINATION":69.9987,"RA_OF_ASC_NODE":248.2338,"ARG_OF_PERICENTER":275.5776,"MEAN_ANOMALY":84.5067,"EPHEMERIS_TYPE":0,"CLASSIFICATION_TYPE":"U","NORAD_CAT_ID":56785,"ELEMENT_SET_NO":999,"REV_AT_EPOCH":13770,"BSTAR":-2.9598e-5,"MEAN_MOTION_DOT":-4.46e-6,"MEAN_MOTION_DDOT":0},{"OBJECT_NAME":"STARLINK-6341","OBJECT_ID":"2023-078V","EPOCH":"2025-11-25T02:05:02.291712","MEAN_MOTION":14.98332057,"ECCENTRICITY":0.0002823,"INCLINATION":69.9989,"RA_OF_ASC_NODE":228.2498,"ARG_OF_PERICENTER":266.7002,"MEAN_ANOMALY":93.3834,"EPHEMERIS_TYPE":0,"CLASSIFICATION_TYPE":"U","NORAD_CAT_ID":56786,"ELEMENT_SET_NO":999,"REV_AT_EPOCH":13750,"BSTAR":0.00015807,"MEAN_MOTION_DOT":1.794e-5,"MEAN_MOTION_DDOT":0},{"OBJECT_NAME":"STARLINK-6326","OBJECT_ID":"2023-078W","EPOCH":"2025-11-25T01:28:56.739648","MEAN_MOTION":14.98353192,"ECCENTRICITY":0.0002648,"INCLINATION":69.9989,"RA_OF_ASC_NODE":228.1639,"ARG_OF_PERICENTER":269.8421,"MEAN_ANOMALY":90.2435,"EPHEMERIS_TYPE":0,"CLASSIFICATION_TYPE":"U","NORAD_CAT_ID":56787,"ELEMENT_SET_NO":999,"REV_AT_EPOCH":13750,"BSTAR":0.00039137,"MEAN_MOTION_DOT":4.583e-5,"MEAN_MOTION_DDOT":0},{"OBJECT_NAME":"STARLINK-6336","OBJECT_ID":"2023-078X","EPOCH":"2025-11-25T01:59:01.811040","MEAN_MOTION":14.98333536,"ECCENTRICITY":0.000254,"INCLINATION":69.9999,"RA_OF_ASC_NODE":228.2342,"ARG_OF_PERICENTER":266.6429,"MEAN_ANOMALY":93.444,"EPHEMERIS_TYPE":0,"CLASSIFICATION_TYPE":"U","NORAD_CAT_ID":56788,"ELEMENT_SET_NO":999,"REV_AT_EPOCH":13750,"BSTAR":2.1218e-5,"MEAN_MOTION_DOT":1.6e-6,"MEAN_MOTION_DDOT":0},{"OBJECT_NAME":"STARLINK-6345","OBJECT_ID":"2023-078Z","EPOCH":"2025-11-25T01:34:39.435744","MEAN_MOTION":14.98333232,"ECCENTRICITY":0.0003214,"INCLINATION":69.9984,"RA_OF_ASC_NODE":208.2929,"ARG_OF_PERICENTER":271.3706,"MEAN_ANOMALY":88.7084,"EPHEMERIS_TYPE":0,"CLASSIFICATION_TYPE":"U","NORAD_CAT_ID":56790,"ELEMENT_SET_NO":999,"REV_AT_EPOCH":13799,"BSTAR":0.0001335,"MEAN_MOTION_DOT":1.5e-5,"MEAN_MOTION_DDOT":0},{"OBJECT_NAME":"STARLINK-5977","OBJECT_ID":"2023-078AA","EPOCH":"2025-11-25T01:59:20.738688","MEAN_MOTION":14.98349676,"ECCENTRICITY":0.0002345,"INCLINATION":69.9997,"RA_OF_ASC_NODE":248.1052,"ARG_OF_PERICENTER":273.7407,"MEAN_ANOMALY":86.3483,"EPHEMERIS_TYPE":0,"CLASSIFICATION_TYPE":"U","NORAD_CAT_ID":56791,"ELEMENT_SET_NO":999,"REV_AT_EPOCH":13701,"BSTAR":-0.00023642,"MEAN_MOTION_DOT":-2.914e-5,"MEAN_MOTION_DDOT":0}]
