STARLINK-6190           
1 56774U 23078H   25329.07059466  .00002643  00000+0  22913-3 0  9991
2 56774  69.9995 268.3328 0002711 282.2586  77.8269 14.98343267136516
STARLINK-6292           
1 56775U 23078J   25329.08243292  .00001500  00000+0  13343-3 0  9993
2 56775  69.9984 208.3502 0002761 268.5811  91.5032 14.98334678137996
STARLINK-6274           
1 56776U 23078K   25329.10771167 -.00001723  00000+0 -13673-3 0  9999
2 56776  70.0000 228.3264 0002367 265.3502  94.7387 14.98316449137501
STARLINK-5582           
1 56777U 23078L   25329.06620324 -.00002519  00000+0 -20329-3 0  9993
2 56777  69.9989 248.4478 0003251 274.0944  85.9843 14.98342905137005
STARLINK-6304           
1 56778U 23078M   25329.10353022  .00001353  00000+0  12115-3 0  9994
2 56778  69.9993 228.3085 0002619 269.5034  90.5825 14.98331977137502
STARLINK-6231           
1 56779U 23078N   25329.07848597  .00004856  00000+0  41434-3 0  9994
2 56779  69.9988 228.2188 0002422 268.2771  91.8111 14.98345961137494
STARLINK-5963           
1 56780U 23078P   25329.06217588  .00000723  00000+0  68366-4 0  9998
2 56780  69.9996 248.0522 0002723 265.8750  94.2098 14.98335118137013
STARLINK-5989           
1 56781U 23078Q   25329.11210971  .00001153  00000+0  10439-3 0  9999
2 56781  70.0018 248.2043 0001558 251.2727 108.8263 14.98318217137017
STARLINK-6352           
1 56782U 23078R   25329.09934867 -.00001110  00000+0 -85209-4 0  9997
2 56782  69.9988 228.2932 0002731 272.5526  87.5321 14.98337749137506
STARLINK-6357           
1 56783U 23078S   25329.09100615  .00001781  00000+0  15705-3 0  9999
2 56783  69.9991 228.2641 0002755 268.1475  91.9369 14.98332779137507
STARLINK-6354           
1 56784U 23078T   25329.09518417  .00009571  00000+0  80810-3 0  9997
2 56784  70.0003 228.2803 0002826 267.7144  92.3692 14.98365306137508
STARLINK-5931           
1 56785U 23078U   25329.12045455 -.00000446  00000+0 -29598-4 0  9990
2 56785  69.9987 248.2338 0002774 275.5776  84.5067 14.98324972137707
STARLINK-6341           
1 56786U 23078V   25329.08683208  .00001794  00000+0  15807-3 0  9992
2 56786  69.9989 228.2498 0002823 266.7002  93.3834 14.98332057137505
STARLINK-6326           
1 56787U 23078W   25329.06176782  .00004583  00000+0  39137-3 0  9996
2 56787  69.9989 228.1639 0002648 269.8421  90.2435 14.98353192137502
STARLINK-6336           
1 56788U 23078X   25329.08265985  .00000160  00000+0  21218-4 0  9992
2 56788  69.9999 228.2342 0002540 266.6429  93.4440 14.98333536137501
STARLINK-6345           
1 56790U 23078Z   25329.06573421  .00001500  00000+0  13350-3 0  9996
2 56790  69.9984 208.2929 0003214 271.3706  88.7084 14.98333232137994
STARLINK-5977           
1 56791U 23078AA  25329.08287892 -.00002914  00000+0 -23642-3 0  9990
2 56791  69.9997 248.1052 0002345 273.7407  86.3483 14.98349676137016
